[{"OBJECT_NAME":"EXCITE","OBJECT_ID":"2018-099BP","EPOCH":"2026-03-09T16:45:15.060672","MEAN_MOTION":15.06036758,"ECCENTRICITY":0.0017626,"INCLINATION":97.4107,"RA_OF_ASC_NODE":111.3606,"ARG_OF_PERICENTER":337.4818,"MEAN_ANOMALY":22.5634,"EPHEMERIS_TYPE":0,"CLASSIFICATION_TYPE":"U","NORAD_CAT_ID":43819,"ELEMENT_SET_NO":999,"REV_AT_EPOCH":39677,"BSTAR":0.00019631388,"MEAN_MOTION_DOT":2.813e-5,"MEAN_MOTION_DDOT":0},{"OBJECT_NAME":"STARLINK-5124","OBJECT_ID":"2022-125AZ","EPOCH":"2026-03-09T15:25:10.881984","MEAN_MOTION":15.0883827,"ECCENTRICITY":0.0001259,"INCLINATION":53.2173,"RA_OF_ASC_NODE":204.4838,"ARG_OF_PERICENTER":85.7158,"MEAN_ANOMALY":274.3978,"EPHEMERIS_TYPE":0,"CLASSIFICATION_TYPE":"U","NORAD_CAT_ID":54011,"ELEMENT_SET_NO":999,"REV_AT_EPOCH":18959,"BSTAR":-3.171e-5,"MEAN_MOTION_DOT":-7.92e-6,"MEAN_MOTION_DDOT":0}]
